[{"OBJECT_NAME":"MISRSAT-2","OBJECT_ID":"2023-187B","EPOCH":"2026-03-09T22:47:39.416064","MEAN_MOTION":14.82973082,"ECCENTRICITY":0.00124357,"INCLINATION":97.9302,"RA_OF_ASC_NODE":151.6612,"ARG_OF_PERICENTER":109.0533,"MEAN_ANOMALY":251.2029,"EPHEMERIS_TYPE":0,"CLASSIFICATION_TYPE":"U","NORAD_CAT_ID":58497,"ELEMENT_SET_NO":999,"REV_AT_EPOCH":12233,"BSTAR":0.00025174418,"MEAN_MOTION_DOT":1.993e-5,"MEAN_MOTION_DDOT":0},{"OBJECT_NAME":"FENGYUN 1C DEB","OBJECT_ID":"1999-025ZB","EPOCH":"2026-03-09T21:55:56.835264","MEAN_MOTION":14.83688974,"ECCENTRICITY":0.0019585,"INCLINATION":102.6179,"RA_OF_ASC_NODE":224.697,"ARG_OF_PERICENTER":195.6163,"MEAN_ANOMALY":317.1775,"EPHEMERIS_TYPE":0,"CLASSIFICATION_TYPE":"U","NORAD_CAT_ID":30290,"ELEMENT_SET_NO":999,"REV_AT_EPOCH":99167,"BSTAR":0.0072005386,"MEAN_MOTION_DOT":0.00060153,"MEAN_MOTION_DDOT":0}]
